NORAD_CAT_ID,OBJECT_NAME,OBJECT_TYPE,EPOCH,MEAN_MOTION,ECCENTRICITY,INCLINATION,RA_OF_ASC_NODE,ARG_OF_PERICENTER,MEAN_ANOMALY,BSTAR,MEAN_MOTION_DOT,MEAN_MOTION_DDOT,TLE_LINE0,TLE_LINE1,TLE_LINE2,SEMIMAJOR_AXIS,PERIOD,APOGEE,PERIGEE,DECAYED
53429.0,STARLINK-4543,PAYLOAD,2023-05-16 22:02:44,15.08844146,0.0001107,53.2178,38.0801,95.3934,264.7185,-3.284e-05,-8.1e-06,0.0,0 STARLINK-4543,1 53429U 22097AT  23136.91857112 -.00000810  00000-0 -32840-4 0  9994,2 53429  53.2178  38.0801 0001107  95.3934 264.7185 15.08844146 43622,6917.868,95.437,540.499,538.967,0.0
53429.0,STARLINK-4543,PAYLOAD,2023-05-17 02:48:53,15.088492,0.0001163,53.218,37.1871,98.3589,261.7535,1.2024e-05,-9.6e-07,0.0,0 STARLINK-4543,1 53429U 22097AT  23137.11728567 -.00000096  00000-0  12024-4 0  9995,2 53429  53.2180  37.1871 0001163  98.3589 261.7535 15.08849200 43175,6917.852,95.437,540.522,538.913,0.0
53429.0,STARLINK-4543,PAYLOAD,2023-05-17 21:53:32,15.08832833,0.0001169,53.2184,33.6181,98.5006,261.6119,6.21e-06,-1.89e-06,0.0,0 STARLINK-4543,1 53429U 22097AT  23137.91217594 -.00000189  00000-0  62100-5 0  9990,2 53429  53.2184  33.6181 0001169  98.5006 261.6119 15.08832833 43773,6917.902,95.438,540.576,538.959,0.0
53429.0,STARLINK-4543,PAYLOAD,2023-05-18 02:39:41,15.088334,0.0001241,53.2183,32.7255,102.314,257.7991,7.4053e-05,8.91e-06,0.0,0 STARLINK-4543,1 53429U 22097AT  23138.11089407  .00000891  00000-0  74053-4 0  9991,2 53429  53.2183  32.7255 0001241 102.3140 257.7991 15.08833400 43324,6917.901,95.438,540.624,538.907,0.0
53429.0,STARLINK-4543,PAYLOAD,2023-05-18 16:58:09,15.08841908,0.0001309,53.2183,30.049,91.2849,268.8293,1.1423e-05,-1.06e-06,0.0,0 STARLINK-4543,1 53429U 22097AT  23138.70705160 -.00000106  00000-0  11423-4 0  9999,2 53429  53.2183  30.0490 0001309  91.2849 268.8293 15.08841908 43895,6917.875,95.437,540.645,538.834,0.0
53429.0,STARLINK-4543,PAYLOAD,2023-05-19 02:30:27,15.08844852,0.0001209,53.218,28.266,96.0675,264.0455,7.2102e-05,8.6e-06,0.0,0 STARLINK-4543,1 53429U 22097AT  23139.10448606  .00000860  00000-0  72102-4 0  9990,2 53429  53.2180  28.2660 0001209  96.0675 264.0455 15.08844852 43472,6917.866,95.437,540.567,538.894,0.0
53429.0,STARLINK-4543,PAYLOAD,2023-05-19 21:35:05,15.08837716,0.0001092,53.2171,24.6976,82.6632,277.4484,2.0168e-05,3.3e-07,0.0,0 STARLINK-4543,1 53429U 22097AT  23139.89937301  .00000033  00000-0  20168-4 0  9998,2 53429  53.2171  24.6976 0001092  82.6632 277.4484 15.08837716 44074,6917.887,95.438,540.508,538.997,0.0
53429.0,STARLINK-4543,PAYLOAD,2023-05-19 23:10:28,15.08842066,0.0001053,53.2179,24.3981,85.99,274.1213,6.6104e-05,7.64e-06,0.0,0 STARLINK-4543,1 53429U 22097AT  23139.96560847  .00000764  00000-0  66104-4 0  9994,2 53429  53.2179  24.3981 0001053  85.9900 274.1213 15.08842066 43602,6917.874,95.437,540.468,539.011,0.0
53429.0,STARLINK-4543,PAYLOAD,2023-05-20 19:50:28,15.08850868,0.0001015,53.2178,20.5329,92.0091,268.1017,1.0966e-05,-1.13e-06,0.0,0 STARLINK-4543,1 53429U 22097AT  23140.82672293 -.00000113  00000-0  10966-4 0  9994,2 53429  53.2178  20.5329 0001015  92.0091 268.1017 15.08850868 44215,6917.847,95.437,540.414,539.01,0.0
53429.0,STARLINK-4543,PAYLOAD,2023-05-20 23:01:14,15.08860416,9.56e-05,53.2172,19.9395,94.8617,265.2484,0.00015055,2.11e-05,0.0,0 STARLINK-4543,1 53429U 22097AT  23140.95919204  .00002110  00000-0  15055-3 0  9995,2 53429  53.2172  19.9395 0000956  94.8617 265.2484 15.08860416 43755,6917.818,95.436,540.344,539.022,0.0
53429.0,STARLINK-4543,PAYLOAD,2023-05-21 14:55:07,15.08831829,8e-05,53.218,16.9714,100.8043,259.3039,1.9187e-05,1.8e-07,0.0,0 STARLINK-4543,1 53429U 22097AT  23141.62161413  .00000018  00000-0  19187-4 0  9997,2 53429  53.2180  16.9714 0000800 100.8043 259.3039 15.08831829 44336,6917.905,95.438,540.324,539.217,0.0
53429.0,STARLINK-4543,PAYLOAD,2023-05-21 22:52:04,15.08827378,8.78e-05,53.2179,15.4755,52.0826,308.0245,-0.00011323,-2.089e-05,0.0,0 STARLINK-4543,1 53429U 22097AT  23141.95282528 -.00002089  00000-0 -11323-3 0  9999,2 53429  53.2179  15.4755 0000878  52.0826 308.0245 15.08827378 44385,6917.919,95.438,540.391,539.177,0.0
53429.0,STARLINK-4543,PAYLOAD,2023-05-22 02:02:50,15.08822524,8.25e-05,53.2183,14.8831,67.3174,292.7905,-0.00014667,-2.62e-05,0.0,0 STARLINK-4543,1 53429U 22097AT  23142.08531048 -.00002620  00000-0 -14667-3 0  9993,2 53429  53.2183  14.8831 0000825  67.3174 292.7905 15.08822524 43924,6917.934,95.439,540.37,539.228,0.0
53429.0,STARLINK-4543,PAYLOAD,2023-05-22 08:24:23,15.08828912,9.95e-05,53.2197,13.6963,82.6052,277.5054,-8.0244e-05,-1.564e-05,0.0,0 STARLINK-4543,1 53429U 22097AT  23142.35026667 -.00001564  00000-0 -80244-4 0  9990,2 53429  53.2197  13.6963 0000995  82.6052 277.5054 15.08828912 43962,6917.914,95.438,540.468,539.091,0.0
53429.0,STARLINK-4543,PAYLOAD,2023-05-22 14:45:55,15.08839774,8.58e-05,53.2191,12.5057,84.5994,275.5096,-0.00014311,-2.565e-05,0.0,0 STARLINK-4543,1 53429U 22097AT  23142.61522502 -.00002565  00000-0 -14311-3 0  9991,2 53429  53.2191  12.5057 0000858  84.5994 275.5096 15.08839774 44482,6917.881,95.438,540.34,539.153,0.0
53429.0,STARLINK-4543,PAYLOAD,2023-05-23 22:33:37,15.08839401,8.71e-05,53.2189,6.5595,86.415,273.6942,0.000319,4.793e-05,0.0,0 STARLINK-4543,1 53429U 22097AT  23143.94001588  .00004793  00000-0  31900-3 0  9990,2 53429  53.2189   6.5595 0000871  86.4150 273.6942 15.08839401 44205,6917.882,95.438,540.35,539.145,0.0
53429.0,STARLINK-4543,PAYLOAD,2023-05-25 14:18:16,15.08847708,9.71e-05,53.2188,359.1251,85.0772,275.0331,-2.113e-05,-6.24e-06,0.0,0 STARLINK-4543,1 53429U 22097AT  23145.59602218 -.00000624  00000-0 -21130-4 0  9996,2 53429  53.2188 359.1251 0000971  85.0772 275.0331 15.08847708 44933,6917.857,95.437,540.394,539.05,0.0
53429.0,STARLINK-4543,PAYLOAD,2023-05-25 19:04:25,15.08852778,0.0001029,53.2191,358.2346,78.1457,281.965,-2.9307e-05,-7.54e-06,0.0,0 STARLINK-4543,1 53429U 22097AT  23145.79473873 -.00000754  00000-0 -29307-4 0  9999,2 53429  53.2191 358.2346 0001029  78.1457 281.9650 15.08852778 44483,6917.841,95.437,540.418,538.994,0.0
53429.0,STARLINK-4543,PAYLOAD,2023-05-25 20:39:48,15.08852552,0.0001057,53.219,357.937,81.5331,278.5781,-5.5365e-06,-3.76e-06,0.0,0 STARLINK-4543,1 53429U 22097AT  23145.86097750 -.00000376  00000-0 -55365-5 0  9997,2 53429  53.2190 357.9370 0001057  81.5331 278.5781 15.08852552 44976,6917.842,95.437,540.438,538.976,0.0
53429.0,STARLINK-4543,PAYLOAD,2023-05-26 14:09:03,15.0884103,0.0001112,53.219,354.6669,77.9249,282.1867,7.4889e-05,9.04e-06,0.0,0 STARLINK-4543,1 53429U 22097AT  23146.58962168  .00000904  00000-0  74889-4 0  9997,2 53429  53.2190 354.6669 0001112  77.9249 282.1867 15.08841030 45088,6917.877,95.437,540.512,538.973,0.0
53429.0,STARLINK-4543,PAYLOAD,2023-05-26 18:55:12,15.08839942,0.0001002,53.2178,353.7735,71.4842,288.6259,6.2762e-05,7.11e-06,0.0,0 STARLINK-4543,1 53429U 22097AT  23146.78834225  .00000711  00000-0  62762-4 0  9994,2 53429  53.2178 353.7735 0001002  71.4842 288.6259 15.08839942 44639,6917.881,95.438,540.439,539.052,0.0
53429.0,STARLINK-4543,PAYLOAD,2023-05-26 20:30:35,15.08839982,0.0001004,53.2178,353.4761,71.2068,288.9033,6.0624e-05,6.77e-06,0.0,0 STARLINK-4543,1 53429U 22097AT  23146.85458208  .00000677  00000-0  60624-4 0  9991,2 53429  53.2178 353.4761 0001004  71.2068 288.9033 15.08839982 45127,6917.88,95.438,540.44,539.051,0.0
53429.0,STARLINK-4543,PAYLOAD,2023-05-27 20:21:22,15.08842449,8.85e-05,53.2176,349.0154,81.6205,278.4888,2.5729e-05,1.22e-06,0.0,0 STARLINK-4543,1 53429U 22097AT  23147.84818094  .00000122  00000-0  25729-4 0  9996,2 53429  53.2176 349.0154 0000885  81.6205 278.4888 15.08842449 44792,6917.873,95.437,540.35,539.126,0.0
53429.0,STARLINK-4543,PAYLOAD,2023-05-28 05:53:41,15.08841994,8.57e-05,53.2173,347.2316,83.524,276.5849,4.5287e-05,4.33e-06,0.0,0 STARLINK-4543,1 53429U 22097AT  23148.24562038  .00000433  00000-0  45287-4 0  9991,2 53429  53.2173 347.2316 0000857  83.5240 276.5849 15.08841994 45339,6917.874,95.437,540.332,539.146,0.0
53429.0,STARLINK-4543,PAYLOAD,2023-05-28 20:12:10,15.08838938,8.9e-05,53.2171,344.5563,79.4575,280.6517,5.7227e-05,6.23e-06,0.0,0 STARLINK-4543,1 53429U 22097AT  23148.84178288  .00000623  00000-0  57227-4 0  9995,2 53429  53.2171 344.5563 0000890  79.4575 280.6517 15.08838938 45425,6917.884,95.438,540.364,539.133,0.0
53429.0,STARLINK-4543,PAYLOAD,2023-05-28 23:22:55,15.08843664,9.26e-05,53.2173,343.9605,81.0896,279.0201,8.7946e-05,1.112e-05,0.0,0 STARLINK-4543,1 53429U 22097AT  23148.97425902  .00001112  00000-0  87946-4 0  9992,2 53429  53.2173 343.9605 0000926  81.0896 279.0201 15.08843664 44964,6917.869,95.437,540.375,539.094,0.0
53429.0,STARLINK-4543,PAYLOAD,2023-05-29 05:44:28,15.08836627,7.93e-05,53.217,342.7688,85.0201,275.0882,3.6709e-05,2.97e-06,0.0,0 STARLINK-4543,1 53429U 22097AT  23149.23922427  .00000297  00000-0  36709-4 0  9990,2 53429  53.2170 342.7688 0000793  85.0201 275.0882 15.08836627 45003,6917.891,95.438,540.304,539.207,0.0
53429.0,STARLINK-4543,PAYLOAD,2023-05-29 21:38:20,15.08839892,9.09e-05,53.2178,339.7965,77.532,282.5773,2.3545e-05,8.7e-07,0.0,0 STARLINK-4543,1 53429U 22097AT  23149.90162514  .00000087  00000-0  23545-4 0  9998,2 53429  53.2178 339.7965 0000909  77.5320 282.5773 15.08839892 45584,6917.881,95.438,540.375,539.117,0.0
53429.0,STARLINK-4543,PAYLOAD,2023-05-30 11:56:48,15.08833036,9.34e-05,53.2175,337.1195,87.7038,272.4061,8.4486e-05,1.057e-05,0.0,0 STARLINK-4543,1 53429U 22097AT  23150.49778822  .00001057  00000-0  84486-4 0  9998,2 53429  53.2175 337.1195 0000934  87.7038 272.4061 15.08833036 45677,6917.902,95.438,540.413,539.121,0.0
53429.0,STARLINK-4543,PAYLOAD,2023-05-30 15:07:34,15.08838069,9.08e-05,53.2177,336.5268,98.1497,261.9598,4.7325e-05,4.66e-06,0.0,0 STARLINK-4543,1 53429U 22097AT  23150.63026607  .00000466  00000-0  47325-4 0  9995,2 53429  53.2177 336.5268 0000908  98.1497 261.9598 15.08838069 45218,6917.886,95.438,540.379,539.123,0.0
